#aV2023  2  4  0  0  0.00000000     288 DD+AD WGS84 FIT  NGA
## 2247 518400.00000000   300.00000000 59979 0.0000000000000
+   31     1  2  3  4  5  6  7  8  9 10 11 12 13 14 15 16 17
+         18 19 20 21 22 23 24 25 26 27 29 30 31 32  0  0  0
+          0  0  0  0  0  0  0  0  0  0  0  0  0  0  0  0  0
+          0  0  0  0  0  0  0  0  0  0  0  0  0  0  0  0  0
+          0  0  0  0  0  0  0  0  0  0  0  0  0  0  0  0  0
++         2  2  2  2  2  2  2  2  2  2  2  2  2  2  2  2  2
++         2  2  2  2  2  2  2  2  2  2  2  2  2  2  0  0  0
++         0  0  0  0  0  0  0  0  0  0  0  0  0  0  0  0  0
++         0  0  0  0  0  0  0  0  0  0  0  0  0  0  0  0  0
++         0  0  0  0  0  0  0  0  0  0  0  0  0  0  0  0  0
%c cc cc ccc ccc cccc cccc cccc cccc ccccc ccccc ccccc ccccc
%c cc cc ccc ccc cccc cccc cccc cccc ccccc ccccc ccccc ccccc
%f  0.0000000  0.000000000  0.00000000000  0.000000000000000
%f  0.0000000  0.000000000  0.00000000000  0.000000000000000
%i    0    0    0    0      0      0      0      0         0
%i    0    0    0    0      0      0      0      0         0
/*      NGA, ST. LOUIS,MO.                                  
/*   EPHEMERIS COMPUTED FROM 2 DAYS OF DATA                 
/*   EPOCHA v8 SMOOTHER                                     
/*   G2139 IERS2010 SATIGS SATAPC                           
*  2023  2  4  8 25  0.00000000
P  1 -14095.736700  22135.447439   2254.173036    216.456532                    
V  1   -337.805436  -3938.313716  32439.576409     -0.044133                    
P  2  10276.026420 -24626.589257    721.434512   -623.100314                    
V  2   2284.685463    835.835559 -31727.337713      0.024598                    
P  3 -15074.567710  12554.231573 -17973.894564   -366.847864                    
V  3 -22608.553847   -723.866819  18690.249732      0.036361                    
P  4  -5280.076470  17611.368299 -19121.905279    -34.805156                    
V  4 -13245.120883 -20449.123836 -15278.993081      0.080062                    
P  5  25494.496479  -5483.418674   5193.134717   -114.580679                    
V  5   6953.722287   2054.889337 -30842.729193     -0.014684                    
P  6  10706.338343  10429.787317 -21875.198285    568.169318                    
V  6 -13717.620039  24272.698653   4932.044574      0.049441                    
P  7  -4031.096394  23796.541299  10936.053348    247.242608                    
V  7  -9050.009254  10383.552160 -27483.232560     -0.067658                    
P  8 -13766.741867   6642.755215  21682.919841   -106.843558                    
V  8 -15074.615042 -23173.396707  -2083.414735     -0.018428                    
P  9   5089.766705  23248.554076 -11819.580477   -224.502130                    
V  9 -10205.180112 -11167.081772 -26575.195464      0.068951                    
P 10 -16346.332019 -11520.494576  17808.279386    -23.255155                    
V 10  22063.979547  -1820.569153  18958.439352     -0.016362                    
P 11  17690.604616  -2992.326327 -19562.018828    -95.242315                    
V 11 -11873.965403  21878.749654 -14107.868924     -0.097465                    
P 12  17211.950937 -11118.684578 -17122.277219   -336.200037                    
V 12  21144.936491   2524.385572  20041.854961     -0.045819                    
P 13  16365.327120   1951.766838  20694.622140    470.532290                    
V 13  10059.923690  24642.527969 -10005.351136      0.061869                    
P 14  13438.336849  13401.970661  18635.948756    -35.012258                    
V 14 -23652.319344   1424.288997  15909.786067      0.085189                    
P 15  12990.004079  -8758.527362  21008.182671     10.463777                    
V 15  17624.643750  21543.760490  -1604.686273      0.033099                    
P 16 -26635.658100    326.961204   2786.582621   -521.505439                    
V 16  -3710.177195  -2488.268950 -31308.786335      0.015016                    
P 17  12729.015665  23234.200272   -414.496771    697.833163                    
V 17  -1644.639643   2071.878398  32152.192951      0.024105                    
P 18   2193.281892 -22672.777875  13543.158340   -126.460962                    
V 18  10206.107438 -14018.460455 -25264.760641     -0.156392                    
P 19  16896.767263  17343.415247 -11451.732928    273.120173                    
V 19   4478.616272  13458.753477  27280.641832      0.050816                    
P 20  25654.855558   -339.857509  -6397.003084    452.849947                    
V 20  -7438.446193   4822.885493 -30146.776031     -0.023612                    
P 21 -16455.040495  16869.408796  11985.104947    153.814048                    
V 21   3263.511503 -14519.152343  27012.823047      0.001464                    
P 22 -17673.444123 -14535.512629 -13192.630568    420.017684                    
V 22  -5911.847918 -16512.477962  25120.652728      0.078494                    
P 23  -3982.702111 -14663.476181  21798.046851      4.779320                    
V 23  27564.498948  -1811.282878   3679.053948      0.014578                    
P 24  14536.064597 -20746.396918   6877.537938    -59.169332                    
V 24   -139.437362  10105.257898  29715.879027     -0.162430                    
P 25   7007.571863 -15130.707889 -20928.170326    417.179271                    
V 25  25970.357087    -68.784980   9152.022669      0.032655                    
P 26 -24140.621092  -5355.240004 -10249.902359    241.168547                    
V 26  12466.917935  -4085.824122 -27185.372953      0.003947                    
P 27 -18278.903337  -5499.509292  18410.167057    110.603555                    
V 27 -11469.290884 -20756.978522 -16964.144628     -0.091594                    
P 29   -869.394081 -22446.473458 -14155.726278   -584.218868                    
V 29   9787.736501  15083.138810 -24673.237380     -0.021015                    
P 30   6189.657002  17603.925329  18898.503225   -531.384999                    
V 30 -13202.491581  20100.131908 -14729.928159      0.011561                    
P 31 -12786.850544  -8691.577659 -21746.080614   -208.272548                    
V 31  13782.101342 -23523.987929   1759.080374     -0.010842                    
P 32 -15924.749731 -21128.925977  -3196.980143   -385.539893                    
V 32      6.118886  -5007.475816  31255.303024     -0.118830                    
EOF
